{
  "type": "FeatureCollection",
  "features": [
    {
      "type": "Feature",
      "properties": {
        "norad_id": 66912,
        "name": "1998-067XY",
        "group": "last-30-days",
        "lat": -17.97924959235512,
        "lon": -40.09545371348958,
        "alt_km": 412.8895141895555,
        "timestamp": "2025-12-16T05:49:07.986006+00:00",
        "meta_object_name": "1998-067XY",
        "meta_object_id": "1998-067XY",
        "meta_epoch": "2025-12-15T15:02:01.063680",
        "meta_mean_motion": 15.51430232,
        "meta_eccentricity": 0.00042771,
        "meta_inclination": 51.6298,
        "meta_ra_of_asc_node": 128.066,
        "meta_arg_of_pericenter": 239.2298,
        "meta_mean_anomaly": 120.827,
        "meta_ephemeris_type": 0,
        "meta_classification_type": "U",
        "meta_norad_cat_id": 66912,
        "meta_element_set_no": 999,
        "meta_rev_at_epoch": 205,
        "meta_bstar": 0.00059034446,
        "meta_mean_motion_dot": 0.00035151,
        "meta_mean_motion_ddot": 0,
        "tle_line1": "1 66912U 98067XY  25349.62640120  .00035151  00000+0  59034-3 0  9996",
        "tle_line2": "2 66912  51.6298 128.0660 0004277 239.2298 120.8270 15.51430232  2058"
      },
      "geometry": {
        "type": "Point",
        "coordinates": [
          -40.09545371348958,
          -17.97924959235512
        ]
      }
    },
    {
      "type": "Feature",
      "properties": {
        "norad_id": 66913,
        "name": "2025-284A",
        "group": "last-30-days",
        "lat": 55.839501014886416,
        "lon": -69.11287766583347,
        "alt_km": 500.5721724405148,
        "timestamp": "2025-12-16T05:49:07.986016+00:00",
        "meta_object_name": "2025-284A",
        "meta_object_id": "2025-284A",
        "meta_epoch": "2025-12-15T07:08:46.902048",
        "meta_mean_motion": 15.19018708,
        "meta_eccentricity": 0.00119938,
        "meta_inclination": 80.4038,
        "meta_ra_of_asc_node": 126.522,
        "meta_arg_of_pericenter": 195.987,
        "meta_mean_anomaly": 164.0981,
        "meta_ephemeris_type": 0,
        "meta_classification_type": "U",
        "meta_norad_cat_id": 66913,
        "meta_element_set_no": 999,
        "meta_rev_at_epoch": 151,
        "meta_bstar": 0.00035654166,
        "meta_mean_motion_dot": 7.498e-05,
        "meta_mean_motion_ddot": 0,
        "tle_line1": "1 66913U 25284A   25349.29776507  .00007498  00000+0  35654-3 0  9995",
        "tle_line2": "2 66913  80.4038 126.5220 0011993 195.9870 164.0981 15.19018708  1516"
      },
      "geometry": {
        "type": "Point",
        "coordinates": [
          -69.11287766583347,
          55.839501014886416
        ]
      }
    },
    {
      "type": "Feature",
      "properties": {
        "norad_id": 66914,
        "name": "2025-284B",
        "group": "last-30-days",
        "lat": 54.34648429750759,
        "lon": -68.31461996820724,
        "alt_km": 505.7386199664925,
        "timestamp": "2025-12-16T05:49:07.986026+00:00",
        "meta_object_name": "2025-284B",
        "meta_object_id": "2025-284B",
        "meta_epoch": "2025-12-15T22:56:54.258720",
        "meta_mean_motion": 15.18980224,
        "meta_eccentricity": 0.00082027,
        "meta_inclination": 80.4046,
        "meta_ra_of_asc_node": 125.6889,
        "meta_arg_of_pericenter": 236.1438,
        "meta_mean_anomaly": 123.901,
        "meta_ephemeris_type": 0,
        "meta_classification_type": "U",
        "meta_norad_cat_id": 66914,
        "meta_element_set_no": 999,
        "meta_rev_at_epoch": 161,
        "meta_bstar": 0.00036716852,
        "meta_mean_motion_dot": 7.704e-05,
        "meta_mean_motion_ddot": 0,
        "tle_line1": "1 66914U 25284B   25349.95618355  .00007704  00000+0  36717-3 0  9996",
        "tle_line2": "2 66914  80.4046 125.6889 0008202 236.1438 123.9010 15.18980224  1612"
      },
      "geometry": {
        "type": "Point",
        "coordinates": [
          -68.31461996820724,
          54.34648429750759
        ]
      }
    },
    {
      "type": "Feature",
      "properties": {
        "norad_id": 66915,
        "name": "HULIANWANG DIGUI-105",
        "group": "last-30-days",
        "lat": -48.93804252004767,
        "lon": -2.4934438911929218,
        "alt_km": 880.6415187627736,
        "timestamp": "2025-12-16T05:49:07.986038+00:00",
        "meta_object_name": "HULIANWANG DIGUI-105",
        "meta_object_id": "2025-285A",
        "meta_epoch": "2025-12-15T23:27:34.077600",
        "meta_mean_motion": 14.03716395,
        "meta_eccentricity": 0.00079541,
        "meta_inclination": 50.0044,
        "meta_ra_of_asc_node": 104.0878,
        "meta_arg_of_pericenter": 293.548,
        "meta_mean_anomaly": 66.4588,
        "meta_ephemeris_type": 0,
        "meta_classification_type": "U",
        "meta_norad_cat_id": 66915,
        "meta_element_set_no": 999,
        "meta_rev_at_epoch": 136,
        "meta_bstar": 0.00019732887,
        "meta_mean_motion_dot": 1.61e-06,
        "meta_mean_motion_ddot": 0,
        "tle_line1": "1 66915U 25285A   25349.97747775  .00000161  00000+0  19733-3 0  9998",
        "tle_line2": "2 66915  50.0044 104.0878 0007954 293.5480  66.4588 14.03716395  1362"
      },
      "geometry": {
        "type": "Point",
        "coordinates": [
          -2.4934438911929218,
          -48.93804252004767
        ]
      }
    },
    {
      "type": "Feature",
      "properties": {
        "norad_id": 66916,
        "name": "HULIANWANG DIGUI-106",
        "group": "last-30-days",
        "lat": -49.748004525867806,
        "lon": 20.437354975261123,
        "alt_km": 880.6860741619257,
        "timestamp": "2025-12-16T05:49:07.986049+00:00",
        "meta_object_name": "HULIANWANG DIGUI-106",
        "meta_object_id": "2025-285B",
        "meta_epoch": "2025-12-15T21:40:48.152640",
        "meta_mean_motion": 14.03701326,
        "meta_eccentricity": 0.00067662,
        "meta_inclination": 50.0054,
        "meta_ra_of_asc_node": 104.3632,
        "meta_arg_of_pericenter": 286.4262,
        "meta_mean_anomaly": 73.5899,
        "meta_ephemeris_type": 0,
        "meta_classification_type": "U",
        "meta_norad_cat_id": 66916,
        "meta_element_set_no": 999,
        "meta_rev_at_epoch": 135,
        "meta_bstar": 9.911186e-06,
        "meta_mean_motion_dot": -1.36e-06,
        "meta_mean_motion_ddot": 0,
        "tle_line1": "1 66916U 25285B   25349.90333510 -.00000136  00000+0  99112-5 0  9994",
        "tle_line2": "2 66916  50.0054 104.3632 0006766 286.4262  73.5899 14.03701326  1355"
      },
      "geometry": {
        "type": "Point",
        "coordinates": [
          20.437354975261123,
          -49.748004525867806
        ]
      }
    },
    {
      "type": "Feature",
      "properties": {
        "norad_id": 66917,
        "name": "HULIANWANG DIGUI-107",
        "group": "last-30-days",
        "lat": -47.85100452695878,
        "lon": 34.89936106126558,
        "alt_km": 878.3308766451973,
        "timestamp": "2025-12-16T05:49:07.986061+00:00",
        "meta_object_name": "HULIANWANG DIGUI-107",
        "meta_object_id": "2025-285C",
        "meta_epoch": "2025-12-15T23:20:41.657568",
        "meta_mean_motion": 14.0422537,
        "meta_eccentricity": 0.00074205,
        "meta_inclination": 50.002,
        "meta_ra_of_asc_node": 104.0584,
        "meta_arg_of_pericenter": 295.2556,
        "meta_mean_anomaly": 64.7579,
        "meta_ephemeris_type": 0,
        "meta_classification_type": "U",
        "meta_norad_cat_id": 66917,
        "meta_element_set_no": 999,
        "meta_rev_at_epoch": 136,
        "meta_bstar": 0.000164357,
        "meta_mean_motion_dot": 1.11e-06,
        "meta_mean_motion_ddot": 0,
        "tle_line1": "1 66917U 25285C   25349.97270437  .00000111  00000+0  16436-3 0  9998",
        "tle_line2": "2 66917  50.0020 104.0584 0007420 295.2556  64.7579 14.04225370  1363"
      },
      "geometry": {
        "type": "Point",
        "coordinates": [
          34.89936106126558,
          -47.85100452695878
        ]
      }
    },
    {
      "type": "Feature",
      "properties": {
        "norad_id": 66918,
        "name": "HULIANWANG DIGUI-108",
        "group": "last-30-days",
        "lat": -46.28281100210851,
        "lon": 41.55539023829791,
        "alt_km": 878.3166712331385,
        "timestamp": "2025-12-16T05:49:07.986071+00:00",
        "meta_object_name": "HULIANWANG DIGUI-108",
        "meta_object_id": "2025-285D",
        "meta_epoch": "2025-12-15T21:36:54.908928",
        "meta_mean_motion": 14.0440295,
        "meta_eccentricity": 0.00063805,
        "meta_inclination": 50.0041,
        "meta_ra_of_asc_node": 104.347,
        "meta_arg_of_pericenter": 291.8226,
        "meta_mean_anomaly": 68.2,
        "meta_ephemeris_type": 0,
        "meta_classification_type": "U",
        "meta_norad_cat_id": 66918,
        "meta_element_set_no": 999,
        "meta_rev_at_epoch": 135,
        "meta_bstar": 0.00010775564,
        "meta_mean_motion_dot": 2.1e-07,
        "meta_mean_motion_ddot": 0,
        "tle_line1": "1 66918U 25285D   25349.90063552  .00000021  00000+0  10776-3 0  9991",
        "tle_line2": "2 66918  50.0041 104.3470 0006380 291.8226  68.2000 14.04402950  1352"
      },
      "geometry": {
        "type": "Point",
        "coordinates": [
          41.55539023829791,
          -46.28281100210851
        ]
      }
    }
  ]
}